{
  "type": "FeatureCollection",
  "features": [
    {
      "type": "Feature",
      "properties": {
        "norad_id": 35462,
        "name": "COSMOS 2251 DEB",
        "group": "cosmos-2251-debris",
        "lat": 62.663258531794995,
        "lon": 29.278007373081582,
        "alt_km": 846.533258318881,
        "timestamp": "2025-12-26T22:28:06.181766+00:00",
        "meta_object_name": "COSMOS 2251 DEB",
        "meta_object_id": "1993-036ALG",
        "meta_epoch": "2025-12-24T22:54:22.815936",
        "meta_mean_motion": 14.29379641,
        "meta_eccentricity": 0.0086649,
        "meta_inclination": 74.0358,
        "meta_ra_of_asc_node": 246.4998,
        "meta_arg_of_pericenter": 279.062,
        "meta_mean_anomaly": 80.0732,
        "meta_ephemeris_type": 0,
        "meta_classification_type": "U",
        "meta_norad_cat_id": 35462,
        "meta_element_set_no": 999,
        "meta_rev_at_epoch": 66555,
        "meta_bstar": 0.0013247,
        "meta_mean_motion_dot": 3.491e-05,
        "meta_mean_motion_ddot": 0,
        "tle_line1": "1 35462U 93036ALG 25358.95443074  .00003491  00000+0  13247-2 0  9995",
        "tle_line2": "2 35462  74.0358 246.4998 0086649 279.0620  80.0732 14.29379641665553"
      },
      "geometry": {
        "type": "Point",
        "coordinates": [
          29.278007373081582,
          62.663258531794995
        ]
      }
    },
    {
      "type": "Feature",
      "properties": {
        "norad_id": 35465,
        "name": "COSMOS 2251 DEB",
        "group": "cosmos-2251-debris",
        "lat": -35.012750947986255,
        "lon": 2.1483721015130937,
        "alt_km": 766.3510009953316,
        "timestamp": "2025-12-26T22:28:06.181777+00:00",
        "meta_object_name": "COSMOS 2251 DEB",
        "meta_object_id": "1993-036ALK",
        "meta_epoch": "2025-12-23T05:21:40.851936",
        "meta_mean_motion": 14.44343886,
        "meta_eccentricity": 0.00645011,
        "meta_inclination": 73.9972,
        "meta_ra_of_asc_node": 177.4731,
        "meta_arg_of_pericenter": 335.4735,
        "meta_mean_anomaly": 24.3357,
        "meta_ephemeris_type": 0,
        "meta_classification_type": "U",
        "meta_norad_cat_id": 35465,
        "meta_element_set_no": 999,
        "meta_rev_at_epoch": 87393,
        "meta_bstar": 0.00030952177,
        "meta_mean_motion_dot": 1.064e-05,
        "meta_mean_motion_ddot": 0,
        "tle_line1": "1 35465U 93036ALK 25357.22338949  .00001064  00000+0  30952-3 0  9998",
        "tle_line2": "2 35465  73.9972 177.4731 0064501 335.4735  24.3357 14.44343886873937"
      },
      "geometry": {
        "type": "Point",
        "coordinates": [
          2.1483721015130937,
          -35.012750947986255
        ]
      }
    },
    {
      "type": "Feature",
      "properties": {
        "norad_id": 35469,
        "name": "COSMOS 2251 DEB",
        "group": "cosmos-2251-debris",
        "lat": -25.404200897136864,
        "lon": -10.63857434053207,
        "alt_km": 785.5295521394028,
        "timestamp": "2025-12-26T22:28:06.181787+00:00",
        "meta_object_name": "COSMOS 2251 DEB",
        "meta_object_id": "1993-036ALP",
        "meta_epoch": "2025-12-25T08:30:10.757088",
        "meta_mean_motion": 14.49829741,
        "meta_eccentricity": 0.0076333,
        "meta_inclination": 74.0167,
        "meta_ra_of_asc_node": 0.1572,
        "meta_arg_of_pericenter": 152.3641,
        "meta_mean_anomaly": 208.161,
        "meta_ephemeris_type": 0,
        "meta_classification_type": "U",
        "meta_norad_cat_id": 35469,
        "meta_element_set_no": 999,
        "meta_rev_at_epoch": 88294,
        "meta_bstar": 9.3047e-05,
        "meta_mean_motion_dot": 3.43e-06,
        "meta_mean_motion_ddot": 0,
        "tle_line1": "1 35469U 93036ALP 25359.35429117  .00000343  00000+0  93047-4 0  9990",
        "tle_line2": "2 35469  74.0167   0.1572 0076333 152.3641 208.1610 14.49829741882941"
      },
      "geometry": {
        "type": "Point",
        "coordinates": [
          -10.63857434053207,
          -25.404200897136864
        ]
      }
    },
    {
      "type": "Feature",
      "properties": {
        "norad_id": 35475,
        "name": "COSMOS 2251 DEB",
        "group": "cosmos-2251-debris",
        "lat": 46.82178950127587,
        "lon": -59.69599903410665,
        "alt_km": 654.1211501540101,
        "timestamp": "2025-12-26T22:28:06.181798+00:00",
        "meta_object_name": "COSMOS 2251 DEB",
        "meta_object_id": "1993-036ALV",
        "meta_epoch": "2025-12-26T15:20:30.310944",
        "meta_mean_motion": 14.70039773,
        "meta_eccentricity": 0.0019833,
        "meta_inclination": 74.022,
        "meta_ra_of_asc_node": 138.659,
        "meta_arg_of_pericenter": 211.7457,
        "meta_mean_anomaly": 148.252,
        "meta_ephemeris_type": 0,
        "meta_classification_type": "U",
        "meta_norad_cat_id": 35475,
        "meta_element_set_no": 999,
        "meta_rev_at_epoch": 65821,
        "meta_bstar": 0.0022731,
        "meta_mean_motion_dot": 0.00013682,
        "meta_mean_motion_ddot": 0,
        "tle_line1": "1 35475U 93036ALV 25360.63923971  .00013682  00000+0  22731-2 0  9997",
        "tle_line2": "2 35475  74.0220 138.6590 0019833 211.7457 148.2520 14.70039773658219"
      },
      "geometry": {
        "type": "Point",
        "coordinates": [
          -59.69599903410665,
          46.82178950127587
        ]
      }
    },
    {
      "type": "Feature",
      "properties": {
        "norad_id": 35476,
        "name": "COSMOS 2251 DEB",
        "group": "cosmos-2251-debris",
        "lat": -71.1790859263226,
        "lon": -24.431288736611453,
        "alt_km": 648.7677128926316,
        "timestamp": "2025-12-26T22:28:06.181808+00:00",
        "meta_object_name": "COSMOS 2251 DEB",
        "meta_object_id": "1993-036ALW",
        "meta_epoch": "2025-12-24T22:18:15.071040",
        "meta_mean_motion": 14.75917923,
        "meta_eccentricity": 0.00184576,
        "meta_inclination": 73.9777,
        "meta_ra_of_asc_node": 36.9779,
        "meta_arg_of_pericenter": 13.4242,
        "meta_mean_anomaly": 48.0996,
        "meta_ephemeris_type": 0,
        "meta_classification_type": "U",
        "meta_norad_cat_id": 35476,
        "meta_element_set_no": 999,
        "meta_rev_at_epoch": 88067,
        "meta_bstar": 0.0016886358,
        "meta_mean_motion_dot": 0.00011625,
        "meta_mean_motion_ddot": 0,
        "tle_line1": "1 35476U 93036ALW 25358.92934110  .00011625  00000+0  16886-2 0  9993",
        "tle_line2": "2 35476  73.9777  36.9779 0018457  13.4242  48.0996 14.75917923880672"
      },
      "geometry": {
        "type": "Point",
        "coordinates": [
          -24.431288736611453,
          -71.1790859263226
        ]
      }
    },
    {
      "type": "Feature",
      "properties": {
        "norad_id": 35580,
        "name": "COSMOS 2251 DEB",
        "group": "cosmos-2251-debris",
        "lat": 4.983578192403476,
        "lon": 156.024232411431,
        "alt_km": 1131.7802976299963,
        "timestamp": "2025-12-26T22:28:06.181818+00:00",
        "meta_object_name": "COSMOS 2251 DEB",
        "meta_object_id": "1993-036ALX",
        "meta_epoch": "2025-12-22T19:33:13.925664",
        "meta_mean_motion": 13.83921158,
        "meta_eccentricity": 0.0280776,
        "meta_inclination": 73.9007,
        "meta_ra_of_asc_node": 161.5885,
        "meta_arg_of_pericenter": 164.8747,
        "meta_mean_anomaly": 196.0996,
        "meta_ephemeris_type": 0,
        "meta_classification_type": "U",
        "meta_norad_cat_id": 35580,
        "meta_element_set_no": 999,
        "meta_rev_at_epoch": 62396,
        "meta_bstar": 0.0019852622,
        "meta_mean_motion_dot": 2.966e-05,
        "meta_mean_motion_ddot": 0,
        "tle_line1": "1 35580U 93036ALX 25356.81474451  .00002966  00000+0  19853-2 0  9997",
        "tle_line2": "2 35580  73.9007 161.5885 0280776 164.8747 196.0996 13.83921158623967"
      },
      "geometry": {
        "type": "Point",
        "coordinates": [
          156.024232411431,
          4.983578192403476
        ]
      }
    },
    {
      "type": "Feature",
      "properties": {
        "norad_id": 35583,
        "name": "COSMOS 2251 DEB",
        "group": "cosmos-2251-debris",
        "lat": 41.34510156296971,
        "lon": -156.28482773852062,
        "alt_km": 1327.307207970145,
        "timestamp": "2025-12-26T22:28:06.181829+00:00",
        "meta_object_name": "COSMOS 2251 DEB",
        "meta_object_id": "1993-036AMA",
        "meta_epoch": "2025-12-25T05:29:42.958752",
        "meta_mean_motion": 13.55357514,
        "meta_eccentricity": 0.0384921,
        "meta_inclination": 73.9156,
        "meta_ra_of_asc_node": 191.7748,
        "meta_arg_of_pericenter": 213.8276,
        "meta_mean_anomaly": 143.7737,
        "meta_ephemeris_type": 0,
        "meta_classification_type": "U",
        "meta_norad_cat_id": 35583,
        "meta_element_set_no": 999,
        "meta_rev_at_epoch": 82581,
        "meta_bstar": 0.00086553,
        "meta_mean_motion_dot": 9.41e-06,
        "meta_mean_motion_ddot": 0,
        "tle_line1": "1 35583U 93036AMA 25359.22896943  .00000941  00000+0  86553-3 0  9995",
        "tle_line2": "2 35583  73.9156 191.7748 0384921 213.8276 143.7737 13.55357514825815"
      },
      "geometry": {
        "type": "Point",
        "coordinates": [
          -156.28482773852062,
          41.34510156296971
        ]
      }
    }
  ]
}